     2.10           N: GPS NAV DATA                         RINEX VERSION / TYPE
Convert v1.8.0                          07-Jun-16 18:54     PGM / RUN BY / DATE 
Ionosphere parameters A0-A3 unknown                         COMMENT             
Ionosphere parameters B0-B3 unknown                         COMMENT             
Delta-UTC unknown                                           COMMENT             
Leap Seconds unknown                                        COMMENT             
                                                            END OF HEADER       
21 16 04 02 14 00 00.0 -.517510809004D-03 -.159161572810D-11  .000000000000D+00
     .200000000000D+01 -.100562500000D+03  .475376944215D-08 -.637109208967D+00
    -.523962080479D-05  .233430664521D-01  .839866697788D-05  .515364714050D+04
     .568800000000D+06  .275671482086D-06 -.119125019233D+01 -.428408384323D-07
     .935741584387D+00  .198031250000D+03 -.180856558279D+01 -.786389899153D-08
    -.117147736816D-09  .100000000000D+01  .189000000000D+04  .000000000000D+00
     .000000000000D+00  .000000000000D+00 -.116415321827D-07  .200000000000D+01
     .563196000000D+06  .000000000000D+00                                      
03 16 04 02 14 00 00.0 -.432357192039D-04 -.420641299570D-11  .000000000000D+00
     .200000000000D+01  .328750000000D+02  .439304013061D-08  .309158683524D+01
     .177137553692D-05  .246962299570D-03  .100042670965D-04  .515373422050D+04
     .568800000000D+06 -.134110450745D-06 -.118050085168D+00  .428408384323D-07
     .959681194231D+00  .187281250000D+03 -.263240437935D+01 -.791461538979D-08
     .362515100209D-09  .100000000000D+01  .189000000000D+04  .000000000000D+00
     .000000000000D+00  .000000000000D+00  .186264514923D-08  .200000000000D+01
     .563196000000D+06  .000000000000D+00                                      
16 16 04 02 14 00 00.0 -.274232588708D-04  .284217094304D-11  .000000000000D+00
     .200000000000D+01  .675937500000D+02  .389480509141D-08 -.213787031936D+01
     .347942113876D-05  .873516115826D-02  .899471342564D-05  .515373628044D+04
     .568800000000D+06 -.160187482834D-06  .309354716595D+01 -.819563865662D-07
     .991108696135D+00  .223250000000D+03  .352910101814D+00 -.764174688086D-08
     .250367571671D-09  .100000000000D+01  .189000000000D+04  .000000000000D+00
     .000000000000D+00  .000000000000D+00 -.102445483208D-07  .200000000000D+01
     .563196000000D+06  .000000000000D+00                                      
21 16 04 02 14 00 00.0 -.517510809004D-03 -.159161572810D-11  .000000000000D+00
     .200000000000D+01 -.100562500000D+03  .475376944215D-08 -.637109208967D+00
    -.523962080479D-05  .233430664521D-01  .839866697788D-05  .515364714050D+04
     .568800000000D+06  .275671482086D-06 -.119125019233D+01 -.428408384323D-07
     .935741584387D+00  .198031250000D+03 -.180856558279D+01 -.786389899153D-08
    -.117147736816D-09  .100000000000D+01  .189000000000D+04  .000000000000D+00
     .000000000000D+00  .000000000000D+00 -.116415321827D-07  .200000000000D+01
     .563226000000D+06  .000000000000D+00                                      
16 16 04 02 14 00 00.0 -.274232588708D-04  .284217094304D-11  .000000000000D+00
     .200000000000D+01  .675937500000D+02  .389480509141D-08 -.213787031936D+01
     .347942113876D-05  .873516115826D-02  .899471342564D-05  .515373628044D+04
     .568800000000D+06 -.160187482834D-06  .309354716595D+01 -.819563865662D-07
     .991108696135D+00  .223250000000D+03  .352910101814D+00 -.764174688086D-08
     .250367571671D-09  .100000000000D+01  .189000000000D+04  .000000000000D+00
     .000000000000D+00  .000000000000D+00 -.102445483208D-07  .200000000000D+01
     .563226000000D+06  .000000000000D+00                                      
21 16 04 02 14 00 00.0 -.517510809004D-03 -.159161572810D-11  .000000000000D+00
     .200000000000D+01 -.100562500000D+03  .475376944215D-08 -.637109208967D+00
    -.523962080479D-05  .233430664521D-01  .839866697788D-05  .515364714050D+04
     .568800000000D+06  .275671482086D-06 -.119125019233D+01 -.428408384323D-07
     .935741584387D+00  .198031250000D+03 -.180856558279D+01 -.786389899153D-08
    -.117147736816D-09  .100000000000D+01  .189000000000D+04  .000000000000D+00
     .000000000000D+00  .000000000000D+00 -.116415321827D-07  .200000000000D+01
     .563256000000D+06  .000000000000D+00                                      
16 16 04 02 14 00 00.0 -.274232588708D-04  .284217094304D-11  .000000000000D+00
     .200000000000D+01  .675937500000D+02  .389480509141D-08 -.213787031936D+01
     .347942113876D-05  .873516115826D-02  .899471342564D-05  .515373628044D+04
     .568800000000D+06 -.160187482834D-06  .309354716595D+01 -.819563865662D-07
     .991108696135D+00  .223250000000D+03  .352910101814D+00 -.764174688086D-08
     .250367571671D-09  .100000000000D+01  .189000000000D+04  .000000000000D+00
     .000000000000D+00  .000000000000D+00 -.102445483208D-07  .200000000000D+01
     .563256000000D+06  .000000000000D+00                                      
21 16 04 02 14 00 00.0 -.517510809004D-03 -.159161572810D-11  .000000000000D+00
     .200000000000D+01 -.100562500000D+03  .475376944215D-08 -.637109208967D+00
    -.523962080479D-05  .233430664521D-01  .839866697788D-05  .515364714050D+04
     .568800000000D+06  .275671482086D-06 -.119125019233D+01 -.428408384323D-07
     .935741584387D+00  .198031250000D+03 -.180856558279D+01 -.786389899153D-08
    -.117147736816D-09  .100000000000D+01  .189000000000D+04  .000000000000D+00
     .000000000000D+00  .000000000000D+00 -.116415321827D-07  .200000000000D+01
     .563286000000D+06  .000000000000D+00                                      
16 16 04 02 14 00 00.0 -.274232588708D-04  .284217094304D-11  .000000000000D+00
     .200000000000D+01  .675937500000D+02  .389480509141D-08 -.213787031936D+01
     .347942113876D-05  .873516115826D-02  .899471342564D-05  .515373628044D+04
     .568800000000D+06 -.160187482834D-06  .309354716595D+01 -.819563865662D-07
     .991108696135D+00  .223250000000D+03  .352910101814D+00 -.764174688086D-08
     .250367571671D-09  .100000000000D+01  .189000000000D+04  .000000000000D+00
     .000000000000D+00  .000000000000D+00 -.102445483208D-07  .200000000000D+01
     .563286000000D+06  .000000000000D+00                                      
21 16 04 02 14 00 00.0 -.517510809004D-03 -.159161572810D-11  .000000000000D+00
     .200000000000D+01 -.100562500000D+03  .475376944215D-08 -.637109208967D+00
    -.523962080479D-05  .233430664521D-01  .839866697788D-05  .515364714050D+04
     .568800000000D+06  .275671482086D-06 -.119125019233D+01 -.428408384323D-07
     .935741584387D+00  .198031250000D+03 -.180856558279D+01 -.786389899153D-08
    -.117147736816D-09  .100000000000D+01  .189000000000D+04  .000000000000D+00
     .000000000000D+00  .000000000000D+00 -.116415321827D-07  .200000000000D+01
     .563316000000D+06  .000000000000D+00                                      
16 16 04 02 14 00 00.0 -.274232588708D-04  .284217094304D-11  .000000000000D+00
     .200000000000D+01  .675937500000D+02  .389480509141D-08 -.213787031936D+01
     .347942113876D-05  .873516115826D-02  .899471342564D-05  .515373628044D+04
     .568800000000D+06 -.160187482834D-06  .309354716595D+01 -.819563865662D-07
     .991108696135D+00  .223250000000D+03  .352910101814D+00 -.764174688086D-08
     .250367571671D-09  .100000000000D+01  .189000000000D+04  .000000000000D+00
     .000000000000D+00  .000000000000D+00 -.102445483208D-07  .200000000000D+01
     .563316000000D+06  .000000000000D+00                                      
16 16 04 02 14 00 00.0 -.274232588708D-04  .284217094304D-11  .000000000000D+00
     .200000000000D+01  .675937500000D+02  .389480509141D-08 -.213787031936D+01
     .347942113876D-05  .873516115826D-02  .899471342564D-05  .515373628044D+04
     .568800000000D+06 -.160187482834D-06  .309354716595D+01 -.819563865662D-07
     .991108696135D+00  .223250000000D+03  .352910101814D+00 -.764174688086D-08
     .250367571671D-09  .100000000000D+01  .189000000000D+04  .000000000000D+00
     .000000000000D+00  .000000000000D+00 -.102445483208D-07  .200000000000D+01
     .563346000000D+06  .000000000000D+00                                      
16 16 04 02 14 00 00.0 -.274232588708D-04  .284217094304D-11  .000000000000D+00
     .200000000000D+01  .675937500000D+02  .389480509141D-08 -.213787031936D+01
     .347942113876D-05  .873516115826D-02  .899471342564D-05  .515373628044D+04
     .568800000000D+06 -.160187482834D-06  .309354716595D+01 -.819563865662D-07
     .991108696135D+00  .223250000000D+03  .352910101814D+00 -.764174688086D-08
     .250367571671D-09  .100000000000D+01  .189000000000D+04  .000000000000D+00
     .000000000000D+00  .000000000000D+00 -.102445483208D-07  .200000000000D+01
     .563376000000D+06  .000000000000D+00                                      
03 16 04 02 14 00 00.0 -.432357192039D-04 -.420641299570D-11  .000000000000D+00
     .200000000000D+01  .328750000000D+02  .439304013061D-08  .309158683524D+01
     .177137553692D-05  .246962299570D-03  .100042670965D-04  .515373422050D+04
     .568800000000D+06 -.134110450745D-06 -.118050085168D+00  .428408384323D-07
     .959681194231D+00  .187281250000D+03 -.263240437935D+01 -.791461538979D-08
     .362515100209D-09  .100000000000D+01  .189000000000D+04  .000000000000D+00
     .000000000000D+00  .000000000000D+00  .186264514923D-08  .200000000000D+01
     .563376000000D+06  .000000000000D+00                                      
16 16 04 02 14 00 00.0 -.274232588708D-04  .284217094304D-11  .000000000000D+00
     .200000000000D+01  .675937500000D+02  .389480509141D-08 -.213787031936D+01
     .347942113876D-05  .873516115826D-02  .899471342564D-05  .515373628044D+04
     .568800000000D+06 -.160187482834D-06  .309354716595D+01 -.819563865662D-07
     .991108696135D+00  .223250000000D+03  .352910101814D+00 -.764174688086D-08
     .250367571671D-09  .100000000000D+01  .189000000000D+04  .000000000000D+00
     .000000000000D+00  .000000000000D+00 -.102445483208D-07  .200000000000D+01
     .563406000000D+06  .000000000000D+00                                      
03 16 04 02 14 00 00.0 -.432357192039D-04 -.420641299570D-11  .000000000000D+00
     .200000000000D+01  .328750000000D+02  .439304013061D-08  .309158683524D+01
     .177137553692D-05  .246962299570D-03  .100042670965D-04  .515373422050D+04
     .568800000000D+06 -.134110450745D-06 -.118050085168D+00  .428408384323D-07
     .959681194231D+00  .187281250000D+03 -.263240437935D+01 -.791461538979D-08
     .362515100209D-09  .100000000000D+01  .189000000000D+04  .000000000000D+00
     .000000000000D+00  .000000000000D+00  .186264514923D-08  .200000000000D+01
     .563406000000D+06  .000000000000D+00                                      
